[{"OBJECT_NAME":"FENGYUN 3F","OBJECT_ID":"2023-111A","EPOCH":"2026-03-09T23:16:34.953600","MEAN_MOTION":14.19919562,"ECCENTRICITY":0.00012463,"INCLINATION":98.6928,"RA_OF_ASC_NODE":140.7948,"ARG_OF_PERICENTER":79.4466,"MEAN_ANOMALY":280.6851,"EPHEMERIS_TYPE":0,"CLASSIFICATION_TYPE":"U","NORAD_CAT_ID":57490,"ELEMENT_SET_NO":999,"REV_AT_EPOCH":13478,"BSTAR":6.0252393e-5,"MEAN_MOTION_DOT":8.4e-7,"MEAN_MOTION_DDOT":0},{"OBJECT_NAME":"SL-16 DEB","OBJECT_ID":"1992-093LX","EPOCH":"2026-03-09T21:35:58.247808","MEAN_MOTION":14.22043846,"ECCENTRICITY":0.00110152,"INCLINATION":71.0164,"RA_OF_ASC_NODE":2.1278,"ARG_OF_PERICENTER":261.8911,"MEAN_ANOMALY":98.0966,"EPHEMERIS_TYPE":0,"CLASSIFICATION_TYPE":"U","NORAD_CAT_ID":49050,"ELEMENT_SET_NO":999,"REV_AT_EPOCH":1908,"BSTAR":0.0086296162,"MEAN_MOTION_DOT":0.00019107,"MEAN_MOTION_DDOT":0}]
